[
  {
    "city": "Banglore",
    "region": "west",
    "pincode": 560007,
    "name": "Agaram"
  },
  {
    "city": "Banglore",
    "region": "west",
    "pincode": 560010,
    "name": "Rajajinagar"
  },
  {
    "city": "Banglore",
    "region": "west",
    "pincode": 560018,
    "name": "Chamrajpet"
  },
  {
    "city": "Banglore",
    "region": "west",
    "pincode": 560023,
    "name": "Binnypet"
  },
  {
    "city": "Banglore",
    "region": "west",
    "pincode": 560026,
    "name": "Deepanjalinagar"
  },
  {
    "city": "Banglore",
    "region": "west",
    "pincode": 560039,
    "name": "Nayandahalli"
  },
  {
    "city": "Banglore",
    "region": "west",
    "pincode": 560040,
    "name": "Attiguppe, Vijayanagar, Chandra Layout, R.P.C. Layout"
  },
  {
    "city": "Banglore",
    "region": "west",
    "pincode": 560054,
    "name": "Mathikere"
  },
  {
    "city": "Banglore",
    "region": "west",
    "pincode": 560055,
    "name": "Malleshwaram West, Milk Colony"
  },
  {
    "city": "Banglore",
    "region": "west",
    "pincode": 560056,
    "name": "Malathalli, Bangalore University Campus"
  },
  {
    "city": "Banglore",
    "region": "west",
    "pincode": 560057,
    "name": "T Dasarahalli"
  },
  {
    "city": "Banglore",
    "region": "west",
    "pincode": 560058,
    "name": "Laggere, Peenya"
  },
  {
    "city": "Banglore",
    "region": "west",
    "pincode": 560059,
    "name": "RV College of Engineering"
  },
  {
    "city": "Banglore",
    "region": "west",
    "pincode": 560060,
    "name": "Kengeri"
  },
  {
    "city": "Banglore",
    "region": "west",
    "pincode": 560072,
    "name": "Mudalapalya, Nagarbhavi"
  },
  {
    "city": "Banglore",
    "region": "west",
    "pincode": 560073,
    "name": "Nagasandra"
  },
  {
    "city": "Banglore",
    "region": "west",
    "pincode": 560079,
    "name": "Basaveshwar Nagar, Kamaksipalya, Kamalanagar, K H B Colony"
  },
  {
    "city": "Banglore",
    "region": "west",
    "pincode": 560086,
    "name": "Mahalakshmi Layout"
  },
  {
    "city": "Banglore",
    "region": "west",
    "pincode": 560088,
    "name": "Hessarghatta"
  },
  {
    "city": "Banglore",
    "region": "west",
    "pincode": 560089,
    "name": "Hessarghatta Lake"
  },
  {
    "city": "Banglore",
    "region": "west",
    "pincode": 560090,
    "name": "Chikkabanavara"
  },
  {
    "city": "Banglore",
    "region": "west",
    "pincode": 560091,
    "name": "Sunkadakatte"
  },
  {
    "city": "Banglore",
    "region": "west",
    "pincode": 560096,
    "name": "Nandini Layout"
  },
  {
    "city": "Banglore",
    "region": "west",
    "pincode": 560098,
    "name": "RR Nagar"
  },
  {
    "city": "Banglore",
    "region": "west",
    "pincode": 560104,
    "name": "RPC Layout, Hampinagar"
  },
  {
    "city": "Banglore",
    "region": "west",
    "pincode": 560110,
    "name": "Ullal"
  }
]